[{"OBJECT_NAME":"NETSAT-1","OBJECT_ID":"2020-068W","EPOCH":"2026-03-09T22:42:38.711232","MEAN_MOTION":15.32042482,"ECCENTRICITY":0.00057337,"INCLINATION":97.8751,"RA_OF_ASC_NODE":63.2583,"ARG_OF_PERICENTER":18.5877,"MEAN_ANOMALY":341.5572,"EPHEMERIS_TYPE":0,"CLASSIFICATION_TYPE":"U","NORAD_CAT_ID":46506,"ELEMENT_SET_NO":999,"REV_AT_EPOCH":30009,"BSTAR":0.00059222329,"MEAN_MOTION_DOT":0.00018269,"MEAN_MOTION_DDOT":0},{"OBJECT_NAME":"STARLINK-35325","OBJECT_ID":"2025-235Y","EPOCH":"2026-03-09T18:23:07.225440","MEAN_MOTION":15.30203606,"ECCENTRICITY":9.043e-5,"INCLINATION":53.1588,"RA_OF_ASC_NODE":244.8772,"ARG_OF_PERICENTER":86.5522,"MEAN_ANOMALY":273.5582,"EPHEMERIS_TYPE":0,"CLASSIFICATION_TYPE":"U","NORAD_CAT_ID":66080,"ELEMENT_SET_NO":999,"REV_AT_EPOCH":2293,"BSTAR":0.00073661444,"MEAN_MOTION_DOT":0.00021523,"MEAN_MOTION_DDOT":0}]
